start=new Date('2021-11-22T00:00:00.000Z').valueOf();
sats=[{"TLE_LINE1":"1 46371U 20062AY  21325.65497088  .00001559  00000-0  12357-3 0  9992","RCS_SIZE":"LARGE","REF_FRAME":"TEME","REV_AT_EPOCH":"6828","OBJECT_NAME":"STARLINK-1688","MEAN_MOTION_DDOT":"0.0000000000000","RA_OF_ASC_NODE":"200.2972","LAUNCH_DATE":"2020-09-03","COUNTRY_CODE":"US","BSTAR":"0.00012357000000","PERIOD":"95.593","OBJECT_TYPE":"PAYLOAD","INCLINATION":"53.0528","CENTER_NAME":"EARTH","APOAPSIS":"548.814","MEAN_MOTION_DOT":"0.00001559","EPOCH":"2021-11-21T15:43:09.484032","MEAN_ANOMALY":"291.2917","TIME_SYSTEM":"UTC","MEAN_MOTION":"15.06392934","TLE_LINE2":"2 46371  53.0528 200.2972 0002280  68.8315 291.2917 15.06392934 68288","ELEMENT_SET_NO":"999","FILE":"3220754","GP_ID":"190207555","NORAD_CAT_ID":"46371","ECCENTRICITY":"0.00022800","MEAN_ELEMENT_THEORY":"SGP4","SEMIMAJOR_AXIS":"6925.370","DECAY_DATE":null,"EPHEMERIS_TYPE":"0","PERIAPSIS":"545.656","CLASSIFICATION_TYPE":"U","SITE":"AFETR","OBJECT_ID":"2020-062AY","ARG_OF_PERICENTER":"68.8315"},{"DECAY_DATE":null,"SEMIMAJOR_AXIS":"6925.369","MEAN_ELEMENT_THEORY":"SGP4","ECCENTRICITY":"0.00020460","NORAD_CAT_ID":"46372","GP_ID":"190204825","FILE":"3220686","ELEMENT_SET_NO":"999","ARG_OF_PERICENTER":"70.9041","OBJECT_ID":"2020-062AZ","SITE":"AFETR","CLASSIFICATION_TYPE":"U","PERIAPSIS":"545.817","EPHEMERIS_TYPE":"0","BSTAR":"-0.00000609590000","COUNTRY_CODE":"US","LAUNCH_DATE":"2020-09-03","RA_OF_ASC_NODE":"222.6302","MEAN_MOTION_DDOT":"0.0000000000000","OBJECT_NAME":"STARLINK-1689","REV_AT_EPOCH":"6774","REF_FRAME":"TEME","RCS_SIZE":"LARGE","TLE_LINE1":"1 46372U 20062AZ  21325.13340443 -.00000373  00000-0 -60959-5 0  9996","TLE_LINE2":"2 46372  53.0536 222.6302 0002046  70.9041 289.2169 15.06393316 67744","MEAN_MOTION":"15.06393316","TIME_SYSTEM":"UTC","MEAN_ANOMALY":"289.2169","EPOCH":"2021-11-21T03:12:06.142752","MEAN_MOTION_DOT":"-0.00000373","CENTER_NAME":"EARTH","APOAPSIS":"548.651","INCLINATION":"53.0536","OBJECT_TYPE":"PAYLOAD","PERIOD":"95.593"},{"PERIOD":"95.593","INCLINATION":"53.0535","OBJECT_TYPE":"PAYLOAD","MEAN_MOTION_DOT":"-0.00000282","CENTER_NAME":"EARTH","APOAPSIS":"551.510","EPOCH":"2021-11-21T13:05:15.955584","TIME_SYSTEM":"UTC","MEAN_ANOMALY":"291.8972","MEAN_MOTION":"15.06385048","TLE_LINE2":"2 46374  53.0535 150.7870 0006138  68.2670 291.8972 15.06385048 68789","TLE_LINE1":"1 46374U 20062BB  21325.54532356 -.00000282  00000-0  12505-6 0  9992","REF_FRAME":"TEME","RCS_SIZE":"LARGE","OBJECT_NAME":"STARLINK-1711","MEAN_MOTION_DDOT":"0.0000000000000","REV_AT_EPOCH":"6878","RA_OF_ASC_NODE":"150.7870","LAUNCH_DATE":"2020-09-03","BSTAR":"0.00000012505000","COUNTRY_CODE":"US","PERIAPSIS":"543.009","EPHEMERIS_TYPE":"0","CLASSIFICATION_TYPE":"U","SITE":"AFETR","OBJECT_ID":"2020-062BB","ARG_OF_PERICENTER":"68.2670","ELEMENT_SET_NO":"999","FILE":"3220686","GP_ID":"190204571","NORAD_CAT_ID":"46374","MEAN_ELEMENT_THEORY":"SGP4","ECCENTRICITY":"0.00061380","DECAY_DATE":null,"SEMIMAJOR_AXIS":"6925.394"},{"MEAN_MOTION_DDOT":"0.0000000000000","OBJECT_NAME":"STARLINK-1724","REV_AT_EPOCH":"6863","RA_OF_ASC_NODE":"175.1221","TLE_LINE1":"1 46375U 20062BC  21325.69227650 -.00000689  00000-0 -27339-4 0  9998","REF_FRAME":"TEME","RCS_SIZE":"LARGE","BSTAR":"-0.00002733900000","COUNTRY_CODE":"US","LAUNCH_DATE":"2020-09-03","INCLINATION":"53.0531","OBJECT_TYPE":"PAYLOAD","MEAN_MOTION_DOT":"-0.00000689","CENTER_NAME":"EARTH","APOAPSIS":"548.531","PERIOD":"95.593","TIME_SYSTEM":"UTC","MEAN_ANOMALY":"285.2385","TLE_LINE2":"2 46375  53.0531 175.1221 0001872  74.8811 285.2385 15.06393233 68631","MEAN_MOTION":"15.06393233","EPOCH":"2021-11-21T16:36:52.689600","GP_ID":"190207871","NORAD_CAT_ID":"46375","ELEMENT_SET_NO":"999","FILE":"3220764","MEAN_ELEMENT_THEORY":"SGP4","ECCENTRICITY":"0.00018720","DECAY_DATE":null,"SEMIMAJOR_AXIS":"6925.369","CLASSIFICATION_TYPE":"U","PERIAPSIS":"545.938","EPHEMERIS_TYPE":"0","OBJECT_ID":"2020-062BC","ARG_OF_PERICENTER":"74.8811","SITE":"AFETR"},{"NORAD_CAT_ID":"46376","GP_ID":"190207894","FILE":"3220765","ELEMENT_SET_NO":"999","DECAY_DATE":null,"SEMIMAJOR_AXIS":"6925.374","MEAN_ELEMENT_THEORY":"SGP4","ECCENTRICITY":"0.00016620","CLASSIFICATION_TYPE":"U","PERIAPSIS":"546.088","EPHEMERIS_TYPE":"0","ARG_OF_PERICENTER":"74.8865","OBJECT_ID":"2020-062BD","SITE":"AFETR","RA_OF_ASC_NODE":"174.7626","OBJECT_NAME":"STARLINK-1742","MEAN_MOTION_DDOT":"0.0000000000000","REV_AT_EPOCH":"6864","REF_FRAME":"TEME","RCS_SIZE":"LARGE","TLE_LINE1":"1 46376U 20062BD  21325.77338347  .00000878  00000-0  77863-4 0  9999","BSTAR":"0.00007786300000","COUNTRY_CODE":"US","LAUNCH_DATE":"2020-09-03","MEAN_MOTION_DOT":"0.00000878","CENTER_NAME":"EARTH","APOAPSIS":"548.390","OBJECT_TYPE":"PAYLOAD","INCLINATION":"53.0525","PERIOD":"95.593","MEAN_MOTION":"15.06391729","TLE_LINE2":"2 46376  53.0525 174.7626 0001662  74.8865 285.2308 15.06391729 68649","TIME_SYSTEM":"UTC","MEAN_ANOMALY":"285.2308","EPOCH":"2021-11-21T18:33:40.331808"},{"REV_AT_EPOCH":"6837","MEAN_MOTION_DDOT":"0.0000000000000","OBJECT_NAME":"STARLINK-1751","RA_OF_ASC_NODE":"176.8726","TLE_LINE1":"1 46378U 20062BF  21325.10092271  .00631380  00000-0  20360-1 0  9996","RCS_SIZE":"LARGE","REF_FRAME":"TEME","COUNTRY_CODE":"US","BSTAR":"0.02036000000000","LAUNCH_DATE":"2020-09-03","INCLINATION":"53.0478","OBJECT_TYPE":"PAYLOAD","APOAPSIS":"479.009","CENTER_NAME":"EARTH","MEAN_MOTION_DOT":"0.00631380","PERIOD":"94.158","MEAN_ANOMALY":"257.3977","TIME_SYSTEM":"UTC","TLE_LINE2":"2 46378  53.0478 176.8726 0001816 102.7225 257.3977 15.29347422 68372","MEAN_MOTION":"15.29347422","EPOCH":"2021-11-21T02:25:19.722144","GP_ID":"190204325","NORAD_CAT_ID":"46378","ELEMENT_SET_NO":"999","FILE":"3220686","ECCENTRICITY":"0.00018160","MEAN_ELEMENT_THEORY":"SGP4","SEMIMAJOR_AXIS":"6855.899","DECAY_DATE":null,"CLASSIFICATION_TYPE":"U","EPHEMERIS_TYPE":"0","PERIAPSIS":"476.519","OBJECT_ID":"2020-062BF","ARG_OF_PERICENTER":"102.7225","SITE":"AFETR"},{"RA_OF_ASC_NODE":"199.9008","MEAN_MOTION_DDOT":"0.0000000000000","OBJECT_NAME":"STARLINK-1758","REV_AT_EPOCH":"6829","REF_FRAME":"TEME","RCS_SIZE":"LARGE","TLE_LINE1":"1 46380U 20062BH  21325.73973962  .00000879  00000-0  77916-4 0  9998","BSTAR":"0.00007791600000","COUNTRY_CODE":"US","LAUNCH_DATE":"2020-09-03","MEAN_MOTION_DOT":"0.00000879","APOAPSIS":"548.528","CENTER_NAME":"EARTH","INCLINATION":"53.0526","OBJECT_TYPE":"PAYLOAD","PERIOD":"95.592","MEAN_MOTION":"15.06394539","TLE_LINE2":"2 46380  53.0526 199.9008 0001874  72.9435 287.1759 15.06394539 68299","TIME_SYSTEM":"UTC","MEAN_ANOMALY":"287.1759","EPOCH":"2021-11-21T17:45:13.503168","NORAD_CAT_ID":"46380","GP_ID":"190207722","FILE":"3220766","ELEMENT_SET_NO":"999","DECAY_DATE":null,"SEMIMAJOR_AXIS":"6925.365","MEAN_ELEMENT_THEORY":"SGP4","ECCENTRICITY":"0.00018740","CLASSIFICATION_TYPE":"U","PERIAPSIS":"545.932","EPHEMERIS_TYPE":"0","ARG_OF_PERICENTER":"72.9435","OBJECT_ID":"2020-062BH","SITE":"AFETR"},{"SITE":"AFETR","ARG_OF_PERICENTER":"81.4720","OBJECT_ID":"2020-062BK","PERIAPSIS":"545.820","EPHEMERIS_TYPE":"0","CLASSIFICATION_TYPE":"U","DECAY_DATE":null,"SEMIMAJOR_AXIS":"6925.336","MEAN_ELEMENT_THEORY":"SGP4","ECCENTRICITY":"0.00019940","FILE":"3220767","ELEMENT_SET_NO":"999","NORAD_CAT_ID":"46382","GP_ID":"190207919","EPOCH":"2021-11-21T17:19:20.305920","MEAN_MOTION":"15.06404097","TLE_LINE2":"2 46382  53.0541 175.0008 0001994  81.4720 278.6495 15.06404097 68617","TIME_SYSTEM":"UTC","MEAN_ANOMALY":"278.6495","PERIOD":"95.592","MEAN_MOTION_DOT":"0.00001730","APOAPSIS":"548.582","CENTER_NAME":"EARTH","INCLINATION":"53.0541","OBJECT_TYPE":"PAYLOAD","LAUNCH_DATE":"2020-09-03","BSTAR":"0.00013502000000","COUNTRY_CODE":"US","REF_FRAME":"TEME","RCS_SIZE":"LARGE","TLE_LINE1":"1 46382U 20062BK  21325.72176280  .00001730  00000-0  13502-3 0  9994","RA_OF_ASC_NODE":"175.0008","OBJECT_NAME":"STARLINK-1769","MEAN_MOTION_DDOT":"0.0000000000000","REV_AT_EPOCH":"6861"},{"LAUNCH_DATE":"2020-09-03","BSTAR":"0.00010404000000","COUNTRY_CODE":"US","REF_FRAME":"TEME","RCS_SIZE":"LARGE","TLE_LINE1":"1 46383U 20062BL  21325.44302214  .00001268  00000-0  10404-3 0  9996","RA_OF_ASC_NODE":"221.2447","OBJECT_NAME":"STARLINK-1770","MEAN_MOTION_DDOT":"0.0000000000000","REV_AT_EPOCH":"6778","EPOCH":"2021-11-21T10:37:57.112896","TLE_LINE2":"2 46383  53.0546 221.2447 0001966  66.4341 293.6854 15.06394909 67788","MEAN_MOTION":"15.06394909","TIME_SYSTEM":"UTC","MEAN_ANOMALY":"293.6854","PERIOD":"95.592","MEAN_MOTION_DOT":"0.00001268","CENTER_NAME":"EARTH","APOAPSIS":"548.591","INCLINATION":"53.0546","OBJECT_TYPE":"PAYLOAD","DECAY_DATE":null,"SEMIMAJOR_AXIS":"6925.364","MEAN_ELEMENT_THEORY":"SGP4","ECCENTRICITY":"0.00019660","FILE":"3220686","ELEMENT_SET_NO":"999","NORAD_CAT_ID":"46383","GP_ID":"190204075","SITE":"AFETR","ARG_OF_PERICENTER":"66.4341","OBJECT_ID":"2020-062BL","PERIAPSIS":"545.868","EPHEMERIS_TYPE":"0","CLASSIFICATION_TYPE":"U"},{"EPOCH":"2021-11-21T10:43:16.122432","MEAN_MOTION":"15.06388986","TLE_LINE2":"2 46384  53.0536 221.2116 0001989  66.1092 294.0105 15.06388986 67788","TIME_SYSTEM":"UTC","MEAN_ANOMALY":"294.0105","PERIOD":"95.593","MEAN_MOTION_DOT":"0.00001315","CENTER_NAME":"EARTH","APOAPSIS":"548.625","OBJECT_TYPE":"PAYLOAD","INCLINATION":"53.0536","LAUNCH_DATE":"2020-09-03","BSTAR":"0.00010718000000","COUNTRY_CODE":"US","REF_FRAME":"TEME","RCS_SIZE":"LARGE","TLE_LINE1":"1 46384U 20062BM  21325.44671438  .00001315  00000-0  10718-3 0  9995","RA_OF_ASC_NODE":"221.2116","OBJECT_NAME":"STARLINK-1771","MEAN_MOTION_DDOT":"0.0000000000000","REV_AT_EPOCH":"6778","SITE":"AFETR","ARG_OF_PERICENTER":"66.1092","OBJECT_ID":"2020-062BM","PERIAPSIS":"545.870","EPHEMERIS_TYPE":"0","CLASSIFICATION_TYPE":"U","DECAY_DATE":null,"SEMIMAJOR_AXIS":"6925.382","MEAN_ELEMENT_THEORY":"SGP4","ECCENTRICITY":"0.00019890","FILE":"3220686","ELEMENT_SET_NO":"999","NORAD_CAT_ID":"46384","GP_ID":"190204826"}];
